[{"OBJECT_NAME":"TIANMU-1 22","OBJECT_ID":"2023-208D","EPOCH":"2026-03-09T22:39:05.738688","MEAN_MOTION":15.29457749,"ECCENTRICITY":0.00031332,"INCLINATION":97.4379,"RA_OF_ASC_NODE":184.9419,"ARG_OF_PERICENTER":351.9312,"MEAN_ANOMALY":8.1877,"EPHEMERIS_TYPE":0,"CLASSIFICATION_TYPE":"U","NORAD_CAT_ID":58663,"ELEMENT_SET_NO":999,"REV_AT_EPOCH":12215,"BSTAR":0.00038239675,"MEAN_MOTION_DOT":0.00010851,"MEAN_MOTION_DDOT":0},{"OBJECT_NAME":"STARLINK-35515","OBJECT_ID":"2025-263D","EPOCH":"2026-03-09T02:50:29.107680","MEAN_MOTION":15.27601008,"ECCENTRICITY":0.00017584,"INCLINATION":43.0044,"RA_OF_ASC_NODE":353.7399,"ARG_OF_PERICENTER":261.7226,"MEAN_ANOMALY":98.3426,"EPHEMERIS_TYPE":0,"CLASSIFICATION_TYPE":"U","NORAD_CAT_ID":66488,"ELEMENT_SET_NO":999,"REV_AT_EPOCH":1881,"BSTAR":0.0015562028,"MEAN_MOTION_DOT":0.00042838,"MEAN_MOTION_DDOT":0}]
